{
  "type": "FeatureCollection",
  "features": [
    {
      "type": "Feature",
      "properties": {
        "norad_id": 28890,
        "name": "BEIJING 1",
        "group": "dmc",
        "lat": 60.71999784834663,
        "lon": 105.7053541979232,
        "alt_km": 670.9152121393836,
        "timestamp": "2025-12-19T04:59:47.967108+00:00",
        "meta_object_name": "BEIJING 1",
        "meta_object_id": "2005-043A",
        "meta_epoch": "2025-12-18T22:09:03.923712",
        "meta_mean_motion": 14.63371494,
        "meta_eccentricity": 0.00156119,
        "meta_inclination": 98.265,
        "meta_ra_of_asc_node": 120.4442,
        "meta_arg_of_pericenter": 122.9902,
        "meta_mean_anomaly": 237.2803,
        "meta_ephemeris_type": 0,
        "meta_classification_type": "U",
        "meta_norad_cat_id": 28890,
        "meta_element_set_no": 999,
        "meta_rev_at_epoch": 7428,
        "meta_bstar": 5.1524048e-05,
        "meta_mean_motion_dot": 2.18e-06,
        "meta_mean_motion_ddot": 0,
        "tle_line1": "1 28890U 05043A   25352.92296208  .00000218  00000+0  51524-4 0  9995",
        "tle_line2": "2 28890  98.2650 120.4442 0015611 122.9902 237.2803 14.63371494 74283"
      },
      "geometry": {
        "type": "Point",
        "coordinates": [
          105.7053541979232,
          60.71999784834663
        ]
      }
    },
    {
      "type": "Feature",
      "properties": {
        "norad_id": 33320,
        "name": "HUANJING 1A (HJ-1A)",
        "group": "dmc",
        "lat": -14.949749332990926,
        "lon": 159.1790549188164,
        "alt_km": 637.1211090269308,
        "timestamp": "2025-12-19T04:59:47.967131+00:00",
        "meta_object_name": "HUANJING 1A (HJ-1A)",
        "meta_object_id": "2008-041A",
        "meta_epoch": "2025-12-18T23:15:50.508576",
        "meta_mean_motion": 14.83412048,
        "meta_eccentricity": 0.00197139,
        "meta_inclination": 97.6535,
        "meta_ra_of_asc_node": 341.0078,
        "meta_arg_of_pericenter": 14.6493,
        "meta_mean_anomaly": 345.5289,
        "meta_ephemeris_type": 0,
        "meta_classification_type": "U",
        "meta_norad_cat_id": 33320,
        "meta_element_set_no": 999,
        "meta_rev_at_epoch": 93168,
        "meta_bstar": 8.9649061e-05,
        "meta_mean_motion_dot": 6.87e-06,
        "meta_mean_motion_ddot": 0,
        "tle_line1": "1 33320U 08041A   25352.96933459  .00000687  00000+0  89649-4 0  9999",
        "tle_line2": "2 33320  97.6535 341.0078 0019713  14.6493 345.5289 14.83412048931687"
      },
      "geometry": {
        "type": "Point",
        "coordinates": [
          159.1790549188164,
          -14.949749332990926
        ]
      }
    },
    {
      "type": "Feature",
      "properties": {
        "norad_id": 33321,
        "name": "HUANJING 1B (HJ-1B)",
        "group": "dmc",
        "lat": 42.04600499773489,
        "lon": -22.035779155435037,
        "alt_km": 590.9975721831952,
        "timestamp": "2025-12-19T04:59:47.967146+00:00",
        "meta_object_name": "HUANJING 1B (HJ-1B)",
        "meta_object_id": "2008-041B",
        "meta_epoch": "2025-12-18T23:56:53.642976",
        "meta_mean_motion": 14.82836241,
        "meta_eccentricity": 0.00380512,
        "meta_inclination": 97.6395,
        "meta_ra_of_asc_node": 344.7158,
        "meta_arg_of_pericenter": 55.867,
        "meta_mean_anomaly": 304.6144,
        "meta_ephemeris_type": 0,
        "meta_classification_type": "U",
        "meta_norad_cat_id": 33321,
        "meta_element_set_no": 999,
        "meta_rev_at_epoch": 93170,
        "meta_bstar": 0.00011338759,
        "meta_mean_motion_dot": 8.78e-06,
        "meta_mean_motion_ddot": 0,
        "tle_line1": "1 33321U 08041B   25352.99784309  .00000878  00000+0  11339-3 0  9993",
        "tle_line2": "2 33321  97.6395 344.7158 0038051  55.8670 304.6144 14.82836241931704"
      },
      "geometry": {
        "type": "Point",
        "coordinates": [
          -22.035779155435037,
          42.04600499773489
        ]
      }
    },
    {
      "type": "Feature",
      "properties": {
        "norad_id": 33446,
        "name": "YAOGAN-4",
        "group": "dmc",
        "lat": -48.165736004196006,
        "lon": -67.8107997283172,
        "alt_km": 618.5783899780718,
        "timestamp": "2025-12-19T04:59:47.967158+00:00",
        "meta_object_name": "YAOGAN-4",
        "meta_object_id": "2008-061A",
        "meta_epoch": "2025-12-18T19:29:52.486656",
        "meta_mean_motion": 14.82699473,
        "meta_eccentricity": 0.00132112,
        "meta_inclination": 97.9189,
        "meta_ra_of_asc_node": 282.8521,
        "meta_arg_of_pericenter": 302.0328,
        "meta_mean_anomaly": 57.9601,
        "meta_ephemeris_type": 0,
        "meta_classification_type": "U",
        "meta_norad_cat_id": 33446,
        "meta_element_set_no": 999,
        "meta_rev_at_epoch": 91893,
        "meta_bstar": 0.00013226403,
        "meta_mean_motion_dot": 1.015e-05,
        "meta_mean_motion_ddot": 0,
        "tle_line1": "1 33446U 08061A   25352.81241304  .00001015  00000+0  13226-3 0  9998",
        "tle_line2": "2 33446  97.9189 282.8521 0013211 302.0328  57.9601 14.82699473918930"
      },
      "geometry": {
        "type": "Point",
        "coordinates": [
          -67.8107997283172,
          -48.165736004196006
        ]
      }
    },
    {
      "type": "Feature",
      "properties": {
        "norad_id": 35681,
        "name": "DEIMOS-1",
        "group": "dmc",
        "lat": -78.27169352504212,
        "lon": -67.25131223095258,
        "alt_km": 654.429032376268,
        "timestamp": "2025-12-19T04:59:47.967169+00:00",
        "meta_object_name": "DEIMOS-1",
        "meta_object_id": "2009-041A",
        "meta_epoch": "2025-12-18T22:55:54.793056",
        "meta_mean_motion": 14.74962914,
        "meta_eccentricity": 0.00026414,
        "meta_inclination": 97.7141,
        "meta_ra_of_asc_node": 153.2689,
        "meta_arg_of_pericenter": 69.7703,
        "meta_mean_anomaly": 290.3791,
        "meta_ephemeris_type": 0,
        "meta_classification_type": "U",
        "meta_norad_cat_id": 35681,
        "meta_element_set_no": 999,
        "meta_rev_at_epoch": 88031,
        "meta_bstar": 0.00012056233,
        "meta_mean_motion_dot": 7.63e-06,
        "meta_mean_motion_ddot": 0,
        "tle_line1": "1 35681U 09041A   25352.95549529  .00000763  00000+0  12056-3 0  9994",
        "tle_line2": "2 35681  97.7141 153.2689 0002641  69.7703 290.3791 14.74962914880311"
      },
      "geometry": {
        "type": "Point",
        "coordinates": [
          -67.25131223095258,
          -78.27169352504212
        ]
      }
    },
    {
      "type": "Feature",
      "properties": {
        "norad_id": 35683,
        "name": "UK-DMC 2",
        "group": "dmc",
        "lat": -66.86599990134674,
        "lon": 146.78190950398084,
        "alt_km": 651.3828558346922,
        "timestamp": "2025-12-19T04:59:47.967180+00:00",
        "meta_object_name": "UK-DMC 2",
        "meta_object_id": "2009-041C",
        "meta_epoch": "2025-12-18T22:47:44.124000",
        "meta_mean_motion": 14.7563493,
        "meta_eccentricity": 0.00014945,
        "meta_inclination": 97.8557,
        "meta_ra_of_asc_node": 127.6768,
        "meta_arg_of_pericenter": 94.3826,
        "meta_mean_anomaly": 265.7555,
        "meta_ephemeris_type": 0,
        "meta_classification_type": "U",
        "meta_norad_cat_id": 35683,
        "meta_element_set_no": 999,
        "meta_rev_at_epoch": 87998,
        "meta_bstar": 0.00012823122,
        "meta_mean_motion_dot": 8.26e-06,
        "meta_mean_motion_ddot": 0,
        "tle_line1": "1 35683U 09041C   25352.94981625  .00000826  00000+0  12823-3 0  9994",
        "tle_line2": "2 35683  97.8557 127.6768 0001494  94.3826 265.7555 14.75634930879983"
      },
      "geometry": {
        "type": "Point",
        "coordinates": [
          146.78190950398084,
          -66.86599990134674
        ]
      }
    },
    {
      "type": "Feature",
      "properties": {
        "norad_id": 40715,
        "name": "DMC3-FM1",
        "group": "dmc",
        "lat": -28.80325123269556,
        "lon": 35.91568087995788,
        "alt_km": 617.9097329580618,
        "timestamp": "2025-12-19T04:59:47.967191+00:00",
        "meta_object_name": "DMC3-FM1",
        "meta_object_id": "2015-032A",
        "meta_epoch": "2025-12-18T21:35:29.956992",
        "meta_mean_motion": 14.8544948,
        "meta_eccentricity": 0.00042866,
        "meta_inclination": 97.6693,
        "meta_ra_of_asc_node": 219.8674,
        "meta_arg_of_pericenter": 296.6458,
        "meta_mean_anomaly": 63.4319,
        "meta_ephemeris_type": 0,
        "meta_classification_type": "U",
        "meta_norad_cat_id": 40715,
        "meta_element_set_no": 999,
        "meta_rev_at_epoch": 56314,
        "meta_bstar": 3.7409392e-05,
        "meta_mean_motion_dot": 2.71e-06,
        "meta_mean_motion_ddot": 0,
        "tle_line1": "1 40715U 15032A   25352.89965228  .00000271  00000+0  37409-4 0  9990",
        "tle_line2": "2 40715  97.6693 219.8674 0004286 296.6458  63.4319 14.85449480563148"
      },
      "geometry": {
        "type": "Point",
        "coordinates": [
          35.91568087995788,
          -28.80325123269556
        ]
      }
    },
    {
      "type": "Feature",
      "properties": {
        "norad_id": 40716,
        "name": "DMC3-FM2",
        "group": "dmc",
        "lat": 82.23641383525673,
        "lon": 140.07255434109192,
        "alt_km": 607.5870578293307,
        "timestamp": "2025-12-19T04:59:47.967201+00:00",
        "meta_object_name": "DMC3-FM2",
        "meta_object_id": "2015-032B",
        "meta_epoch": "2025-12-18T22:07:53.044608",
        "meta_mean_motion": 14.85451451,
        "meta_eccentricity": 0.00048857,
        "meta_inclination": 97.675,
        "meta_ra_of_asc_node": 221.3372,
        "meta_arg_of_pericenter": 302.1656,
        "meta_mean_anomaly": 57.9085,
        "meta_ephemeris_type": 0,
        "meta_classification_type": "U",
        "meta_norad_cat_id": 40716,
        "meta_element_set_no": 999,
        "meta_rev_at_epoch": 56314,
        "meta_bstar": 7.9739842e-05,
        "meta_mean_motion_dot": 6.36e-06,
        "meta_mean_motion_ddot": 0,
        "tle_line1": "1 40716U 15032B   25352.92214172  .00000636  00000+0  79740-4 0  9999",
        "tle_line2": "2 40716  97.6750 221.3372 0004885 302.1656  57.9085 14.85451451563143"
      },
      "geometry": {
        "type": "Point",
        "coordinates": [
          140.07255434109192,
          82.23641383525673
        ]
      }
    },
    {
      "type": "Feature",
      "properties": {
        "norad_id": 40717,
        "name": "DMC3-FM3",
        "group": "dmc",
        "lat": -26.83080825647755,
        "lon": -132.8356012929795,
        "alt_km": 615.4232468161172,
        "timestamp": "2025-12-19T04:59:47.967212+00:00",
        "meta_object_name": "DMC3-FM3",
        "meta_object_id": "2015-032C",
        "meta_epoch": "2025-12-18T22:39:05.717952",
        "meta_mean_motion": 14.85440965,
        "meta_eccentricity": 0.00041842,
        "meta_inclination": 97.6806,
        "meta_ra_of_asc_node": 222.9953,
        "meta_arg_of_pericenter": 304.5032,
        "meta_mean_anomaly": 55.5788,
        "meta_ephemeris_type": 0,
        "meta_classification_type": "U",
        "meta_norad_cat_id": 40717,
        "meta_element_set_no": 999,
        "meta_rev_at_epoch": 56315,
        "meta_bstar": 0.00012713807,
        "meta_mean_motion_dot": 1.044e-05,
        "meta_mean_motion_ddot": 0,
        "tle_line1": "1 40717U 15032C   25352.94381618  .00001044  00000+0  12714-3 0  9993",
        "tle_line2": "2 40717  97.6806 222.9953 0004184 304.5032  55.5788 14.85440965563157"
      },
      "geometry": {
        "type": "Point",
        "coordinates": [
          -132.8356012929795,
          -26.83080825647755
        ]
      }
    }
  ]
}